STARLINK-4507           
1 53403U 22097R   25172.52510207  .00000202  00000+0  30746-4 0  9991
2 53403  53.2161 216.8820 0001016  84.6954 275.4154 15.08840155159084
STARLINK-4509           
1 53404U 22097S   25172.46343609  .00001044  00000+0  83697-4 0  9993
2 53404  53.2156 206.7438 0001192  79.7361 280.3765 15.08825775159213
STARLINK-4510           
1 53405U 22097T   25172.80746636 -.00000268  00000+0  12606-5 0  9990
2 53405  53.2156 215.2676 0001114  87.4480 272.6640 15.08835746158646
STARLINK-4533           
1 53406U 22097U   25172.12022193  .00000202  00000+0  30769-4 0  9997
2 53406  53.2156 208.3512 0001158  88.3804 271.7321 15.08840250159167
STARLINK-4537           
1 53407U 22097V   25172.78088482  .00009948  00000+0  62556-3 0  9997
2 53407  53.2137 195.5119 0001924  14.8564 345.2485 15.09809269158911
STARLINK-4491           
1 53408U 22097W   25172.46247047 -.00000620  00000+0 -20910-4 0  9996
2 53408  53.2159 206.8208 0000997  82.6189 277.4917 15.08831751159216
STARLINK-4490           
1 53409U 22097X   25172.78725396  .00000302  00000+0  37069-4 0  9998
2 53409  53.2155 195.5511 0001182  81.2306 278.8820 15.08835971158919
STARLINK-4492           
1 53410U 22097Y   25172.78999487  .00000484  00000+0  48510-4 0  9998
2 53410  53.2157 205.3443 0001195  85.0011 275.1118 15.08831452158770
STARLINK-4497           
1 53411U 22097Z   25172.53238801  .00000083  00000+0  23274-4 0  9993
2 53411  53.2157 206.5015 0001122  79.3979 280.7140 15.08836881159227
STARLINK-4496           
1 53412U 22097AA  25172.38150293  .00000453  00000+0  46569-4 0  9998
2 53412  53.2158 207.1789 0001008  71.7823 288.3279 15.08839632159203
STARLINK-4500           
1 53413U 22097AB  25172.38886302 -.00000325  00000+0 -23683-5 0  9999
2 53413  53.2155 207.1458 0001111  85.8971 274.2148 15.08838370159206
STARLINK-4304           
1 53414U 22097AC  25172.11287083  .00000688  00000+0  61263-4 0  9997
2 53414  53.2157 208.3856 0001070  80.2496 279.8617 15.08848487159155
STARLINK-4479           
1 53415U 22097AD  25172.50662172  .00000179  00000+0  29308-4 0  9996
2 53415  53.2159 206.6179 0001179  84.1331 275.9795 15.08841146159191
STARLINK-4480           
1 53416U 22097AE  25172.82309838  .00000457  00000+0  46802-4 0  9996
2 53416  53.2157 205.1456 0001150  81.2276 278.8847 15.08840382158782
