[
  {
    "OBJECT_NAME": "STARLINK-4507",
    "OBJECT_ID": "2022-097R",
    "EPOCH": "2025-06-21T12:36:08.818848",
    "MEAN_MOTION": 15.08840155,
    "ECCENTRICITY": 0.0001016,
    "INCLINATION": 53.2161,
    "RA_OF_ASC_NODE": 216.882,
    "ARG_OF_PERICENTER": 84.6954,
    "MEAN_ANOMALY": 275.4154,
    "EPHEMERIS_TYPE": 0,
    "CLASSIFICATION_TYPE": "U",
    "NORAD_CAT_ID": 53403,
    "ELEMENT_SET_NO": 999,
    "REV_AT_EPOCH": 15908,
    "BSTAR": 3.0746e-05,
    "MEAN_MOTION_DOT": 2.02e-06,
    "MEAN_MOTION_DDOT": 0
  },
  {
    "OBJECT_NAME": "STARLINK-4509",
    "OBJECT_ID": "2022-097S",
    "EPOCH": "2025-06-21T11:07:20.878176",
    "MEAN_MOTION": 15.08825775,
    "ECCENTRICITY": 0.0001192,
    "INCLINATION": 53.2156,
    "RA_OF_ASC_NODE": 206.7438,
    "ARG_OF_PERICENTER": 79.7361,
    "MEAN_ANOMALY": 280.3765,
    "EPHEMERIS_TYPE": 0,
    "CLASSIFICATION_TYPE": "U",
    "NORAD_CAT_ID": 53404,
    "ELEMENT_SET_NO": 999,
    "REV_AT_EPOCH": 15921,
    "BSTAR": 8.3697e-05,
    "MEAN_MOTION_DOT": 1.044e-05,
    "MEAN_MOTION_DDOT": 0
  },
  {
    "OBJECT_NAME": "STARLINK-4510",
    "OBJECT_ID": "2022-097T",
    "EPOCH": "2025-06-21T19:22:45.093504",
    "MEAN_MOTION": 15.08835746,
    "ECCENTRICITY": 0.0001114,
    "INCLINATION": 53.2156,
    "RA_OF_ASC_NODE": 215.2676,
    "ARG_OF_PERICENTER": 87.448,
    "MEAN_ANOMALY": 272.664,
    "EPHEMERIS_TYPE": 0,
    "CLASSIFICATION_TYPE": "U",
    "NORAD_CAT_ID": 53405,
    "ELEMENT_SET_NO": 999,
    "REV_AT_EPOCH": 15864,
    "BSTAR": 1.2606e-06,
    "MEAN_MOTION_DOT": -2.68e-06,
    "MEAN_MOTION_DDOT": 0
  },
  {
    "OBJECT_NAME": "STARLINK-4533",
    "OBJECT_ID": "2022-097U",
    "EPOCH": "2025-06-21T02:53:07.174752",
    "MEAN_MOTION": 15.0884025,
    "ECCENTRICITY": 0.0001158,
    "INCLINATION": 53.2156,
    "RA_OF_ASC_NODE": 208.3512,
    "ARG_OF_PERICENTER": 88.3804,
    "MEAN_ANOMALY": 271.7321,
    "EPHEMERIS_TYPE": 0,
    "CLASSIFICATION_TYPE": "U",
    "NORAD_CAT_ID": 53406,
    "ELEMENT_SET_NO": 999,
    "REV_AT_EPOCH": 15916,
    "BSTAR": 3.0769e-05,
    "MEAN_MOTION_DOT": 2.02e-06,
    "MEAN_MOTION_DDOT": 0
  },
  {
    "OBJECT_NAME": "STARLINK-4537",
    "OBJECT_ID": "2022-097V",
    "EPOCH": "2025-06-21T18:44:28.448448",
    "MEAN_MOTION": 15.09809269,
    "ECCENTRICITY": 0.0001924,
    "INCLINATION": 53.2137,
    "RA_OF_ASC_NODE": 195.5119,
    "ARG_OF_PERICENTER": 14.8564,
    "MEAN_ANOMALY": 345.2485,
    "EPHEMERIS_TYPE": 0,
    "CLASSIFICATION_TYPE": "U",
    "NORAD_CAT_ID": 53407,
    "ELEMENT_SET_NO": 999,
    "REV_AT_EPOCH": 15891,
    "BSTAR": 0.00062556,
    "MEAN_MOTION_DOT": 9.948e-05,
    "MEAN_MOTION_DDOT": 0
  },
  {
    "OBJECT_NAME": "STARLINK-4491",
    "OBJECT_ID": "2022-097W",
    "EPOCH": "2025-06-21T11:05:57.448608",
    "MEAN_MOTION": 15.08831751,
    "ECCENTRICITY": 9.97e-05,
    "INCLINATION": 53.2159,
    "RA_OF_ASC_NODE": 206.8208,
    "ARG_OF_PERICENTER": 82.6189,
    "MEAN_ANOMALY": 277.4917,
    "EPHEMERIS_TYPE": 0,
    "CLASSIFICATION_TYPE": "U",
    "NORAD_CAT_ID": 53408,
    "ELEMENT_SET_NO": 999,
    "REV_AT_EPOCH": 15921,
    "BSTAR": -2.091e-05,
    "MEAN_MOTION_DOT": -6.2e-06,
    "MEAN_MOTION_DDOT": 0
  },
  {
    "OBJECT_NAME": "STARLINK-4490",
    "OBJECT_ID": "2022-097X",
    "EPOCH": "2025-06-21T18:53:38.742144",
    "MEAN_MOTION": 15.08835971,
    "ECCENTRICITY": 0.0001182,
    "INCLINATION": 53.2155,
    "RA_OF_ASC_NODE": 195.5511,
    "ARG_OF_PERICENTER": 81.2306,
    "MEAN_ANOMALY": 278.882,
    "EPHEMERIS_TYPE": 0,
    "CLASSIFICATION_TYPE": "U",
    "NORAD_CAT_ID": 53409,
    "ELEMENT_SET_NO": 999,
    "REV_AT_EPOCH": 15891,
    "BSTAR": 3.7069e-05,
    "MEAN_MOTION_DOT": 3.02e-06,
    "MEAN_MOTION_DDOT": 0
  },
  {
    "OBJECT_NAME": "STARLINK-4492",
    "OBJECT_ID": "2022-097Y",
    "EPOCH": "2025-06-21T18:57:35.556768",
    "MEAN_MOTION": 15.08831452,
    "ECCENTRICITY": 0.0001195,
    "INCLINATION": 53.2157,
    "RA_OF_ASC_NODE": 205.3443,
    "ARG_OF_PERICENTER": 85.0011,
    "MEAN_ANOMALY": 275.1118,
    "EPHEMERIS_TYPE": 0,
    "CLASSIFICATION_TYPE": "U",
    "NORAD_CAT_ID": 53410,
    "ELEMENT_SET_NO": 999,
    "REV_AT_EPOCH": 15877,
    "BSTAR": 4.851e-05,
    "MEAN_MOTION_DOT": 4.84e-06,
    "MEAN_MOTION_DDOT": 0
  },
  {
    "OBJECT_NAME": "STARLINK-4497",
    "OBJECT_ID": "2022-097Z",
    "EPOCH": "2025-06-21T12:46:38.324064",
    "MEAN_MOTION": 15.08836881,
    "ECCENTRICITY": 0.0001122,
    "INCLINATION": 53.2157,
    "RA_OF_ASC_NODE": 206.5015,
    "ARG_OF_PERICENTER": 79.3979,
    "MEAN_ANOMALY": 280.714,
    "EPHEMERIS_TYPE": 0,
    "CLASSIFICATION_TYPE": "U",
    "NORAD_CAT_ID": 53411,
    "ELEMENT_SET_NO": 999,
    "REV_AT_EPOCH": 15922,
    "BSTAR": 2.3274e-05,
    "MEAN_MOTION_DOT": 8.3e-07,
    "MEAN_MOTION_DDOT": 0
  },
  {
    "OBJECT_NAME": "STARLINK-4496",
    "OBJECT_ID": "2022-097AA",
    "EPOCH": "2025-06-21T09:09:21.853152",
    "MEAN_MOTION": 15.08839632,
    "ECCENTRICITY": 0.0001008,
    "INCLINATION": 53.2158,
    "RA_OF_ASC_NODE": 207.1789,
    "ARG_OF_PERICENTER": 71.7823,
    "MEAN_ANOMALY": 288.3279,
    "EPHEMERIS_TYPE": 0,
    "CLASSIFICATION_TYPE": "U",
    "NORAD_CAT_ID": 53412,
    "ELEMENT_SET_NO": 999,
    "REV_AT_EPOCH": 15920,
    "BSTAR": 4.6569e-05,
    "MEAN_MOTION_DOT": 4.53e-06,
    "MEAN_MOTION_DDOT": 0
  },
  {
    "OBJECT_NAME": "STARLINK-4500",
    "OBJECT_ID": "2022-097AB",
    "EPOCH": "2025-06-21T09:19:57.764928",
    "MEAN_MOTION": 15.0883837,
    "ECCENTRICITY": 0.0001111,
    "INCLINATION": 53.2155,
    "RA_OF_ASC_NODE": 207.1458,
    "ARG_OF_PERICENTER": 85.8971,
    "MEAN_ANOMALY": 274.2148,
    "EPHEMERIS_TYPE": 0,
    "CLASSIFICATION_TYPE": "U",
    "NORAD_CAT_ID": 53413,
    "ELEMENT_SET_NO": 999,
    "REV_AT_EPOCH": 15920,
    "BSTAR": -2.3683e-06,
    "MEAN_MOTION_DOT": -3.25e-06,
    "MEAN_MOTION_DDOT": 0
  },
  {
    "OBJECT_NAME": "STARLINK-4304",
    "OBJECT_ID": "2022-097AC",
    "EPOCH": "2025-06-21T02:42:32.039712",
    "MEAN_MOTION": 15.08848487,
    "ECCENTRICITY": 0.000107,
    "INCLINATION": 53.2157,
    "RA_OF_ASC_NODE": 208.3856,
    "ARG_OF_PERICENTER": 80.2496,
    "MEAN_ANOMALY": 279.8617,
    "EPHEMERIS_TYPE": 0,
    "CLASSIFICATION_TYPE": "U",
    "NORAD_CAT_ID": 53414,
    "ELEMENT_SET_NO": 999,
    "REV_AT_EPOCH": 15915,
    "BSTAR": 6.1263e-05,
    "MEAN_MOTION_DOT": 6.88e-06,
    "MEAN_MOTION_DDOT": 0
  },
  {
    "OBJECT_NAME": "STARLINK-4479",
    "OBJECT_ID": "2022-097AD",
    "EPOCH": "2025-06-21T12:09:32.116608",
    "MEAN_MOTION": 15.08841146,
    "ECCENTRICITY": 0.0001179,
    "INCLINATION": 53.2159,
    "RA_OF_ASC_NODE": 206.6179,
    "ARG_OF_PERICENTER": 84.1331,
    "MEAN_ANOMALY": 275.9795,
    "EPHEMERIS_TYPE": 0,
    "CLASSIFICATION_TYPE": "U",
    "NORAD_CAT_ID": 53415,
    "ELEMENT_SET_NO": 999,
    "REV_AT_EPOCH": 15919,
    "BSTAR": 2.9308e-05,
    "MEAN_MOTION_DOT": 1.79e-06,
    "MEAN_MOTION_DDOT": 0
  },
  {
    "OBJECT_NAME": "STARLINK-4480",
    "OBJECT_ID": "2022-097AE",
    "EPOCH": "2025-06-21T19:45:15.700032",
    "MEAN_MOTION": 15.08840382,
    "ECCENTRICITY": 0.000115,
    "INCLINATION": 53.2157,
    "RA_OF_ASC_NODE": 205.1456,
    "ARG_OF_PERICENTER": 81.2276,
    "MEAN_ANOMALY": 278.8847,
    "EPHEMERIS_TYPE": 0,
    "CLASSIFICATION_TYPE": "U",
    "NORAD_CAT_ID": 53416,
    "ELEMENT_SET_NO": 999,
    "REV_AT_EPOCH": 15878,
    "BSTAR": 4.6802e-05,
    "MEAN_MOTION_DOT": 4.57e-06,
    "MEAN_MOTION_DDOT": 0
  }
]